satname,norad_id,inclination_deg,eccentricity,mean_motion_rev_per_day,perigee_km,apogee_km,l1,l2
STARLINK-1008,44714,53.1569,0.0001226,15.31047439,471.84602560376425,473.52584738779296,1 44714U 19074B   26060.80767612  .00006535  00000+0  22665-3 0  9994,2 44714  53.1569 215.4149 0001226  82.6296 277.4844 15.31047439347660
STARLINK-1012,44718,53.16,0.0001329,15.30195323,474.3182217879212,476.13984647979487,1 44718U 19074F   26060.65314023  .00000710  00000+0  36097-4 0  9999,2 44718  53.1600 216.1351 0001329  87.0501 273.0651 15.30195323347635
STARLINK-1017,44723,53.0528,0.0001815,15.23221458,494.88356937668414,497.37892875109446,1 44723U 19074L   26060.67229163  .00041077  00000+0  17176-2 0  9993,2 44723  53.0528 208.4267 0001815 132.7066 227.4083 15.23221458347748
STARLINK-1019,44724,53.0432,0.0003322,15.79074671,330.83171205152394,335.2906321170567,1 44724U 19074M   26060.91668981  .00115281  00000+0  62913-3 0  9995,2 44724  53.0432 175.7324 0003322 173.0338 296.3657 15.79074671  5969
STARLINK-1020,44725,53.1596,0.0001202,15.30164657,474.4968136744601,476.144384881326,1 44725U 19074N   26060.91668981  .00059837  00000+0  20184-2 0  9993,2 44725  53.1596 239.9536 0001202  72.1902  39.4263 15.30164657  5826
STARLINK-1031,44736,53.0407,0.0003377,15.87148561,308.02305833318314,312.5404163483836,1 44736U 19074Z   26060.91668981  .00171786  00000+0  63564-3 0  9993,2 44736  53.0407 159.5711 0003377 321.8583 125.6862 15.87148561  5937
STARLINK-1036,44741,53.0515,0.0003288,15.5400722,402.80974595832595,407.27036318941373,1 44741U 19074AE  26060.77145786  .00113466  00000+0  17063-2 0  9999,2 44741  53.0515 226.8283 0003288 203.3828 156.7033 15.54007220347497
STARLINK-1039,44744,53.0458,0.000529,15.2079253,499.8084174351161,507.08913518645295,1 44744U 19074AH  26060.73144571  .00049873  00000+0  22331-2 0  9993,2 44744  53.0458 251.6540 0005290 146.6592 213.4737 15.20792530347142
STARLINK-1042,44747,53.0443,0.0002034,15.49331741,417.29730008917613,420.0622451522777,1 44747U 19074AL  26060.46228862  .00026688  00000+0  48583-3 0  9999,2 44747  53.0443 134.2543 0002034 110.2607 249.8619 15.49331741348793
STARLINK-1043,44748,53.0516,0.0002446,15.5303431,406.2128156917979,409.5325316241515,1 44748U 19074AM  26060.74405096  .00036746  00000+0  58304-3 0  9995,2 44748  53.0516 232.8165 0002446  92.6887 267.4403 15.53034310347412
STARLINK-1046,44751,53.0532,0.0006891,15.42873042,432.93814738982655,442.3316442166233,1 44751U 19074AQ  26060.83894343  .00037015  00000+0  83516-3 0  9999,2 44751  53.0532 248.1387 0006891 148.6068 211.5350 15.42873042347200
STARLINK-1047,44752,53.0709,0.0003048,15.32362356,466.6793215817761,470.8531938076676,1 44752U 19074AR  26060.60504176  .00014899  00000+0  48087-3 0  9996,2 44752  53.0709 183.7698 0003048 174.3383 185.7652 15.32362356348100
STARLINK-1048,44753,53.0523,0.0002474,15.51687885,410.1178308456829,413.4774905157865,1 44753U 19074AS  26060.91668981  .00126311  00000+0  20611-2 0  9991,2 44753  53.0523 206.2875 0002474 156.0086 153.7022 15.51687885  5892
STARLINK-1053,44758,53.0315,0.0006971,15.87741647,303.95470069712155,313.27737178024563,1 44758U 19074AX  26060.91668981  .00215720  00000+0  76971-3 0  9990,2 44758  53.0315 123.0287 0006971  25.0730 168.8996 15.87741647  6058
STARLINK-1063,44768,53.1567,0.0001926,15.2955818,475.8117734958814,478.45242315255655,1 44768U 19074BH  26060.84918153 -.00533580  00000+0 -19713-1 0  9990,2 44768  53.1567 255.8133 0001926 100.6634 259.4583 15.29558180347119
STARLINK-1067,44771,53.0515,0.0001191,15.55552784,399.73888920276295,401.3535715482394,1 44771U 19074BL  26060.73277278  .00105400  00000+0  15001-2 0  9999,2 44771  53.0515 242.7312 0001191 277.3790  82.7085 15.55552784347272
STARLINK-1068,44772,53.0483,0.0002733,15.61456815,381.600230903131,385.29611335821755,1 44772U 19074BM  26060.91668981  .00175106  00000+0  19739-2 0  9997,2 44772  53.0483 217.8998 0002733 206.6912 339.5088 15.61456815  5973
STARLINK-1112,44925,53.0351,0.0003181,16.03775896,261.8599870942762,266.0856973759064,1 44925U 20001M   26060.83389808  .00611126  18711-3  93750-3 0  9993,2 44925  53.0351 281.8706 0003181 246.1160 113.9538 16.03775896340063
STARLINK-1114,44927,53.0507,0.0008459,15.48669084,414.86741824622186,426.36955277661036,1 44927U 20001P   26060.80985332  .00097965  00000+0  17848-2 0  9996,2 44927  53.0507   7.1451 0008459  86.6392 273.5583 15.48669084338879
STARLINK-1123,44930,53.1235,0.000164,15.22216273,498.0292902237079,500.28504271031034,1 44930U 20001S   26060.91668981  .01785605  00000+0  69942-1 0  9997,2 44930  53.1235  21.0504 0001640  76.6423 299.3842 15.22216273  5780
STARLINK-1094,44941,53.1612,0.0001137,15.30189212,474.4680508393085,476.0265104247246,1 44941U 20001AD  26060.84570318  .00002007  00000+0  79909-4 0  9991,2 44941  53.1612 355.9960 0001137 100.3430 259.7699 15.30189212339039
STARLINK-1122,44949,53.1617,0.0001377,15.30201781,474.26604583180324,476.1534575272153,1 44949U 20001AM  26060.21889440  .00001522  00000+0  63511-4 0  9992,2 44949  53.1617 358.9537 0001377  89.2895 270.8264 15.30201781338937
STARLINK-1080,44961,53.0539,0.0008565,15.4557921,423.84581726536726,435.5076021500963,1 44961U 20001AZ  26060.14977530  .00090301  00000+0  18332-2 0  9998,2 44961  53.0539 328.9494 0008565  88.3552 271.8435 15.45579210339357
STARLINK-1090,44968,53.0542,0.0001648,15.06510692,545.731082136992,548.0135652100753,1 44968U 20001BG  26060.79852111  .00024128  00000+0  16283-2 0  9990,2 44968  53.0542 342.0432 0001648  75.3354 284.7817 15.06510692339227
STARLINK-1132,45044,53.1572,0.0004945,15.42702534,434.7664501671561,441.5077452497899,1 45044U 20006A   26060.82095189  .00074741  00000+0  16790-2 0  9998,2 45044  53.1572 291.2360 0004945 157.3960 202.7265 15.42702534335714
STARLINK-1131,45047,53.1601,0.0001219,15.30188669,474.4134742102224,476.084329693118,1 45047U 20006D   26060.69758079  .00002980  00000+0  11275-3 0  9990,2 45047  53.1601 318.1033 0001219  90.8461 269.2679 15.30188669335322
STARLINK-1134,45048,53.0329,0.0009934,15.42460914,432.07691239556243,445.62089999399086,1 45048U 20006E   26060.79008612  .00044362  00000+0  10111-2 0  9990,2 45048  53.0329 275.8472 0009934 145.5699 214.5951 15.42460914335929
STARLINK-1156,45054,53.1604,0.0001249,15.30188009,474.39488447244366,476.1068607630241,1 45054U 20006L   26060.85455318  .00001162  00000+0  51356-4 0  9992,2 45054  53.1604 317.3881 0001249  91.6018 268.5126 15.30188009335344
STARLINK-1159,45057,53.0456,0.0004818,15.79391875,328.9295379957139,335.3955826520423,1 45057U 20006P   26060.91668981  .00141935  00000+0  76009-3 0  9998,2 45057  53.0456 273.8140 0004818 119.8280 241.4485 15.79391875  5975
STARLINK-1166,45060,53.0541,0.0006029,15.44049742,430.06450819895235,438.278789968017,1 45060U 20006S   26060.81244751  .00071534  00000+0  15363-2 0  9998,2 45060  53.0541 310.1788 0006029 115.1908 244.9724 15.44049742335446
STARLINK-1169,45061,53.1595,0.0001104,15.30191038,474.4852154438513,475.9984414891769,1 45061U 20006T   26060.16873967  .00004630  00000+0  16838-3 0  9996,2 45061  53.1595 320.5746 0001104 101.6881 258.4244 15.30191038335241
STARLINK-1171,45062,53.0462,0.0002053,15.55771767,398.5185923368763,401.30165848657,1 45062U 20006U   26060.81887617  .00056730  00000+0  80898-3 0  9991,2 45062  53.0462 287.6675 0002053 353.5746   6.5238 15.55771767335762
STARLINK-1133,45064,53.1589,0.0001304,15.30187678,474.3581790296903,476.14554284462247,1 45064U 20006W   26060.82767309  .00002296  00000+0  89658-4 0  9991,2 45064  53.1589 294.3173 0001304  94.6195 265.4954 15.30187678335678
STARLINK-1167,45071,53.1612,0.0001492,15.29353084,476.72207723333577,478.7678724146235,1 45071U 20006AD  26060.85130831 -.00001177  00000+0 -28451-4 0  9999,2 45071  53.1612 294.2123 0001492  83.5094 276.6076 15.29353084335673
STARLINK-1168,45072,53.1601,0.0001288,15.29352279,476.86434272052065,478.63041853697086,1 45072U 20006AE  26060.79575975  .00001441  00000+0  62277-4 0  9991,2 45072  53.1601 294.5329 0001288  91.8832 268.2316 15.29352279335666
STARLINK-1172,45074,53.1578,0.0001168,15.3020553,474.39808829267804,475.9990274790007,1 45074U 20006AG  26060.67387706  .00005770  00000+0  20675-3 0  9997,2 45074  53.1578 295.0568 0001168  93.0540 267.0595 15.30205530335642
STARLINK-1153,45080,53.1616,0.0001815,15.29345909,476.5220714705438,479.0107644112559,1 45080U 20006AN  26060.83572486 -.00006502  00000+0 -21323-3 0  9990,2 45080  53.1616 294.2047 0001815 109.0639 251.0558 15.29345909335679
STARLINK-1151,45081,53.052,0.0001605,15.61938681,380.97243387660455,383.14245629347715,1 45081U 20006AP  26060.91668981  .01201118  00000+0  12155-1 0  9996,2 45081  53.0520 277.9133 0001605  84.4156 329.6473 15.61938681  5914
STARLINK-1185,45087,53.1547,0.0001208,15.29358362,476.90101252790555,478.5573898021066,1 45087U 20006AV  26060.80915070 -.00001718  00000+0 -47200-4 0  9991,2 45087  53.1547 278.9966 0001208  89.0641 271.0497 15.29358362335888
STARLINK-1183,45088,53.1584,0.0001366,15.30199518,474.28034049554753,476.1526766740926,1 45088U 20006AW  26060.84971649  .00002168  00000+0  85312-4 0  9994,2 45088  53.1584 278.9974 0001366  89.2853 270.8305 15.30199518335884
STARLINK-1152,45096,53.0393,0.0005598,15.37289269,450.3044739475281,457.95387915879655,1 45096U 20006BE  26060.73461461  .00074533  00000+0  20004-2 0  9997,2 45096  53.0393 243.9767 0005598 165.6235 194.4927 15.37289269336361
STARLINK-1184,45098,53.0526,0.0006445,15.09883056,532.1004992922835,541.0135398835318,1 45098U 20006BG  26060.78983257  .00003882  00000+0  25470-3 0  9998,2 45098  53.0526 281.0829 0006445 113.6697 246.4970 15.09883056335841
STARLINK-1193,45100,53.0538,0.0001464,15.54125373,403.70324760562926,405.689261182516,1 45100U 20006BJ  26060.91668981  .00045062  00000+0  68502-3 0  9990,2 45100  53.0538 267.9931 0001464  75.9301 173.9882 15.54125373  5945
